[{"OBJECT_NAME":"UTMN 2 (RS27S)","OBJECT_ID":"2023-091AP","EPOCH":"2026-03-09T23:09:07.917408","MEAN_MOTION":15.29495965,"ECCENTRICITY":0.00097379,"INCLINATION":97.5194,"RA_OF_ASC_NODE":134.949,"ARG_OF_PERICENTER":76.0788,"MEAN_ANOMALY":284.1534,"EPHEMERIS_TYPE":0,"CLASSIFICATION_TYPE":"U","NORAD_CAT_ID":57203,"ELEMENT_SET_NO":999,"REV_AT_EPOCH":14936,"BSTAR":0.00056135701,"MEAN_MOTION_DOT":0.00016013,"MEAN_MOTION_DDOT":0},{"OBJECT_NAME":"STARLINK-31331","OBJECT_ID":"2024-027R","EPOCH":"2026-03-09T22:10:12.903744","MEAN_MOTION":15.30185758,"ECCENTRICITY":0.00012453,"INCLINATION":53.1622,"RA_OF_ASC_NODE":308.5656,"ARG_OF_PERICENTER":109.4082,"MEAN_ANOMALY":250.7053,"EPHEMERIS_TYPE":0,"CLASSIFICATION_TYPE":"U","NORAD_CAT_ID":58946,"ELEMENT_SET_NO":999,"REV_AT_EPOCH":11736,"BSTAR":2.8055981e-5,"MEAN_MOTION_DOT":4.72e-6,"MEAN_MOTION_DDOT":0}]
